[{"OBJECT_NAME":"ALOS-2","OBJECT_ID":"2014-029A","EPOCH":"2023-04-27T03:41:16.220544","MEAN_MOTION":14.79451411,"ECCENTRICITY":0.0001623,"INCLINATION":97.9194,"RA_OF_ASC_NODE":214.7791,"ARG_OF_PERICENTER":111.3968,"MEAN_ANOMALY":248.744,"EPHEMERIS_TYPE":0,"CLASSIFICATION_TYPE":"U","NORAD_CAT_ID":39766,"ELEMENT_SET_NO":999,"REV_AT_EPOCH":48201,"BSTAR":-0.00084082,"MEAN_MOTION_DOT":-6.321e-5,"MEAN_MOTION_DDOT":0},{"OBJECT_NAME":"KAZEOSAT 2","OBJECT_ID":"2014-033A","EPOCH":"2023-04-27T02:42:18.951840","MEAN_MOTION":14.82056405,"ECCENTRICITY":0.0014183,"INCLINATION":97.6802,"RA_OF_ASC_NODE":355.5246,"ARG_OF_PERICENTER":127.3665,"MEAN_ANOMALY":232.8825,"EPHEMERIS_TYPE":0,"CLASSIFICATION_TYPE":"U","NORAD_CAT_ID":40010,"ELEMENT_SET_NO":999,"REV_AT_EPOCH":47890,"BSTAR":7.5938e-5,"MEAN_MOTION_DOT":5.54e-6,"MEAN_MOTION_DDOT":0},{"OBJECT_NAME":"HODOYOSHI-4","OBJECT_ID":"2014-033B","EPOCH":"2023-04-27T03:22:48.484416","MEAN_MOTION":14.82547688,"ECCENTRICITY":0.002748,"INCLINATION":97.6336,"RA_OF_ASC_NODE":341.7205,"ARG_OF_PERICENTER":128.7352,"MEAN_ANOMALY":231.6324,"EPHEMERIS_TYPE":0,"CLASSIFICATION_TYPE":"U","NORAD_CAT_ID":40011,"ELEMENT_SET_NO":999,"REV_AT_EPOCH":47855,"BSTAR":0.00017401,"MEAN_MOTION_DOT":1.357e-5,"MEAN_MOTION_DDOT":0},{"OBJECT_NAME":"DEIMOS-2","OBJECT_ID":"2014-033D","EPOCH":"2023-04-27T03:14:59.862048","MEAN_MOTION":14.8650225,"ECCENTRICITY":0.0002276,"INCLINATION":97.7287,"RA_OF_ASC_NODE":10.885,"ARG_OF_PERICENTER":124.6454,"MEAN_ANOMALY":235.4963,"EPHEMERIS_TYPE":0,"CLASSIFICATION_TYPE":"U","NORAD_CAT_ID":40013,"ELEMENT_SET_NO":999,"REV_AT_EPOCH":47977,"BSTAR":0.00030082,"MEAN_MOTION_DOT":2.609e-5,"MEAN_MOTION_DDOT":0},{"OBJECT_NAME":"HODOYOSHI-3","OBJECT_ID":"2014-033F","EPOCH":"2023-04-26T19:33:31.679136","MEAN_MOTION":14.79583789,"ECCENTRICITY":0.003685,"INCLINATION":97.6128,"RA_OF_ASC_NODE":319.6719,"ARG_OF_PERICENTER":158.1184,"MEAN_ANOMALY":202.1612,"EPHEMERIS_TYPE":0,"CLASSIFICATION_TYPE":"U","NORAD_CAT_ID":40015,"ELEMENT_SET_NO":999,"REV_AT_EPOCH":47763,"BSTAR":0.00018463,"MEAN_MOTION_DOT":1.349e-5,"MEAN_MOTION_DDOT":0},{"OBJECT_NAME":"SPOT 7","OBJECT_ID":"2014-034A","EPOCH":"2023-04-27T03:28:00.908544","MEAN_MOTION":14.58611858,"ECCENTRICITY":0.0001251,"INCLINATION":98.2058,"RA_OF_ASC_NODE":184.9479,"ARG_OF_PERICENTER":115.7834,"MEAN_ANOMALY":244.3554,"EPHEMERIS_TYPE":0,"CLASSIFICATION_TYPE":"U","NORAD_CAT_ID":40053,"ELEMENT_SET_NO":999,"REV_AT_EPOCH":46981,"BSTAR":0.00016675,"MEAN_MOTION_DOT":7.3e-6,"MEAN_MOTION_DDOT":0},{"OBJECT_NAME":"SKYSAT-B","OBJECT_ID":"2014-037D","EPOCH":"2023-04-26T22:00:47.075328","MEAN_MOTION":14.82483083,"ECCENTRICITY":0.0007044,"INCLINATION":98.3666,"RA_OF_ASC_NODE":5.2669,"ARG_OF_PERICENTER":38.4829,"MEAN_ANOMALY":321.6884,"EPHEMERIS_TYPE":0,"CLASSIFICATION_TYPE":"U","NORAD_CAT_ID":40072,"ELEMENT_SET_NO":999,"REV_AT_EPOCH":47567,"BSTAR":0.00019492,"MEAN_MOTION_DOT":1.507e-5,"MEAN_MOTION_DDOT":0},{"OBJECT_NAME":"WORLDVIEW-3 (WV-3)","OBJECT_ID":"2014-048A","EPOCH":"2023-04-26T21:17:51.855072","MEAN_MOTION":14.85126594,"ECCENTRICITY":0.0003862,"INCLINATION":97.8254,"RA_OF_ASC_NODE":191.8713,"ARG_OF_PERICENTER":168.0732,"MEAN_ANOMALY":192.0575,"EPHEMERIS_TYPE":0,"CLASSIFICATION_TYPE":"U","NORAD_CAT_ID":40115,"ELEMENT_SET_NO":999,"REV_AT_EPOCH":47163,"BSTAR":0.00020879,"MEAN_MOTION_DOT":1.733e-5,"MEAN_MOTION_DDOT":0},{"OBJECT_NAME":"GAOFEN 2","OBJECT_ID":"2014-049A","EPOCH":"2023-04-27T03:10:37.149888","MEAN_MOTION":14.80753962,"ECCENTRICITY":0.0007001,"INCLINATION":97.7173,"RA_OF_ASC_NODE":179.7479,"ARG_OF_PERICENTER":22.5995,"MEAN_ANOMALY":337.5553,"EPHEMERIS_TYPE":0,"CLASSIFICATION_TYPE":"U","NORAD_CAT_ID":40118,"ELEMENT_SET_NO":999,"REV_AT_EPOCH":46951,"BSTAR":0.00024715,"MEAN_MOTION_DOT":1.854e-5,"MEAN_MOTION_DDOT":0},{"OBJECT_NAME":"YAOGAN 21","OBJECT_ID":"2014-053A","EPOCH":"2023-04-27T03:31:53.081760","MEAN_MOTION":15.23955518,"ECCENTRICITY":0.0013061,"INCLINATION":97.307,"RA_OF_ASC_NODE":182.3633,"ARG_OF_PERICENTER":203.072,"MEAN_ANOMALY":240.9062,"EPHEMERIS_TYPE":0,"CLASSIFICATION_TYPE":"U","NORAD_CAT_ID":40143,"ELEMENT_SET_NO":999,"REV_AT_EPOCH":48031,"BSTAR":0.00036384,"MEAN_MOTION_DOT":8.754e-5,"MEAN_MOTION_DDOT":0},{"OBJECT_NAME":"YAOGAN 22","OBJECT_ID":"2014-063A","EPOCH":"2023-04-27T01:48:09.256896","MEAN_MOTION":13.15456364,"ECCENTRICITY":0.0006136,"INCLINATION":100.5998,"RA_OF_ASC_NODE":242.4083,"ARG_OF_PERICENTER":253.6577,"MEAN_ANOMALY":106.386,"EPHEMERIS_TYPE":0,"CLASSIFICATION_TYPE":"U","NORAD_CAT_ID":40275,"ELEMENT_SET_NO":999,"REV_AT_EPOCH":40898,"BSTAR":6.9554e-5,"MEAN_MOTION_DOT":-1.9e-7,"MEAN_MOTION_DDOT":0},{"OBJECT_NAME":"ASNARO","OBJECT_ID":"2014-070A","EPOCH":"2023-04-27T04:52:04.855872","MEAN_MOTION":15.1919708,"ECCENTRICITY":0.0002671,"INCLINATION":97.4391,"RA_OF_ASC_NODE":200.4266,"ARG_OF_PERICENTER":235.9606,"MEAN_ANOMALY":176.1614,"EPHEMERIS_TYPE":0,"CLASSIFICATION_TYPE":"U","NORAD_CAT_ID":40298,"ELEMENT_SET_NO":999,"REV_AT_EPOCH":46984,"BSTAR":0.00055013,"MEAN_MOTION_DOT":0.00011519,"MEAN_MOTION_DDOT":0},{"OBJECT_NAME":"HODOYOSHI-1","OBJECT_ID":"2014-070B","EPOCH":"2023-04-27T03:34:17.103648","MEAN_MOTION":15.32563437,"ECCENTRICITY":0.0012582,"INCLINATION":97.1977,"RA_OF_ASC_NODE":181.1685,"ARG_OF_PERICENTER":102.0417,"MEAN_ANOMALY":342.0373,"EPHEMERIS_TYPE":0,"CLASSIFICATION_TYPE":"U","NORAD_CAT_ID":40299,"ELEMENT_SET_NO":999,"REV_AT_EPOCH":47099,"BSTAR":0.00033206,"MEAN_MOTION_DOT":0.00010394,"MEAN_MOTION_DDOT":0},{"OBJECT_NAME":"QSAT-EOS","OBJECT_ID":"2014-070D","EPOCH":"2023-04-27T04:31:30.228384","MEAN_MOTION":15.56505013,"ECCENTRICITY":0.0012333,"INCLINATION":97.1574,"RA_OF_ASC_NODE":185.8867,"ARG_OF_PERICENTER":54.5905,"MEAN_ANOMALY":3.7836,"EPHEMERIS_TYPE":0,"CLASSIFICATION_TYPE":"U","NORAD_CAT_ID":40301,"ELEMENT_SET_NO":999,"REV_AT_EPOCH":47190,"BSTAR":0.00055125,"MEAN_MOTION_DOT":0.00039216,"MEAN_MOTION_DDOT":0},{"OBJECT_NAME":"YAOGAN 23","OBJECT_ID":"2014-071A","EPOCH":"2023-04-27T04:30:13.578624","MEAN_MOTION":15.28819262,"ECCENTRICITY":0.0003006,"INCLINATION":97.6499,"RA_OF_ASC_NODE":78.9983,"ARG_OF_PERICENTER":101.4212,"MEAN_ANOMALY":354.4549,"EPHEMERIS_TYPE":0,"CLASSIFICATION_TYPE":"U","NORAD_CAT_ID":40305,"ELEMENT_SET_NO":999,"REV_AT_EPOCH":46834,"BSTAR":0.00048607,"MEAN_MOTION_DOT":0.00013547,"MEAN_MOTION_DDOT":0},{"OBJECT_NAME":"CBERS 4","OBJECT_ID":"2014-079A","EPOCH":"2023-04-27T03:40:37.337952","MEAN_MOTION":14.35474418,"ECCENTRICITY":0.0001083,"INCLINATION":98.4443,"RA_OF_ASC_NODE":190.1883,"ARG_OF_PERICENTER":116.2154,"MEAN_ANOMALY":243.9181,"EPHEMERIS_TYPE":0,"CLASSIFICATION_TYPE":"U","NORAD_CAT_ID":40336,"ELEMENT_SET_NO":999,"REV_AT_EPOCH":43941,"BSTAR":0.00016195,"MEAN_MOTION_DOT":4.23e-6,"MEAN_MOTION_DDOT":0}]
