ALOS-2                  
1 39766U 14029A   23117.15365996 -.00006321  00000+0 -84082-3 0  9993
2 39766  97.9194 214.7791 0001623 111.3968 248.7440 14.79451411482015
KAZEOSAT 2              
1 40010U 14033A   23117.11271935  .00000554  00000+0  75938-4 0  9998
2 40010  97.6802 355.5246 0014183 127.3665 232.8825 14.82056405478909
HODOYOSHI-4             
1 40011U 14033B   23117.14083894  .00001357  00000+0  17401-3 0  9999
2 40011  97.6336 341.7205 0027480 128.7352 231.6324 14.82547688478556
DEIMOS-2                
1 40013U 14033D   23117.13541507  .00002609  00000+0  30082-3 0  9991
2 40013  97.7287  10.8850 0002276 124.6454 235.4963 14.86502250479774
HODOYOSHI-3             
1 40015U 14033F   23116.81494999  .00001349  00000+0  18463-3 0  9998
2 40015  97.6128 319.6719 0036850 158.1184 202.1612 14.79583789477633
SPOT 7                  
1 40053U 14034A   23117.14445496  .00000730  00000+0  16675-3 0  9992
2 40053  98.2058 184.9479 0001251 115.7834 244.3554 14.58611858469818
SKYSAT-B                
1 40072U 14037D   23116.91721152  .00001507  00000+0  19492-3 0  9999
2 40072  98.3666   5.2669 0007044  38.4829 321.6884 14.82483083475672
WORLDVIEW-3 (WV-3)      
1 40115U 14048A   23116.88740573  .00001733  00000+0  20879-3 0  9995
2 40115  97.8254 191.8713 0003862 168.0732 192.0575 14.85126594471639
GAOFEN 2                
1 40118U 14049A   23117.13237442  .00001854  00000+0  24715-3 0  9991
2 40118  97.7173 179.7479 0007001  22.5995 337.5553 14.80753962469515
YAOGAN 21               
1 40143U 14053A   23117.14714215  .00008754  00000+0  36384-3 0  9994
2 40143  97.3070 182.3633 0013061 203.0720 240.9062 15.23955518480314
YAOGAN 22               
1 40275U 14063A   23117.07510714 -.00000019  00000+0  69554-4 0  9994
2 40275 100.5998 242.4083 0006136 253.6577 106.3860 13.15456364408987
ASNARO                  
1 40298U 14070A   23117.20283398  .00011519  00000+0  55013-3 0  9997
2 40298  97.4391 200.4266 0002671 235.9606 176.1614 15.19197080469843
HODOYOSHI-1             
1 40299U 14070B   23117.14880907  .00010394  00000+0  33206-3 0  9990
2 40299  97.1977 181.1685 0012582 102.0417 342.0373 15.32563437470999
QSAT-EOS                
1 40301U 14070D   23117.18854431  .00039216  00000+0  55125-3 0  9999
2 40301  97.1574 185.8867 0012333  54.5905   3.7836 15.56505013471905
YAOGAN 23               
1 40305U 14071A   23117.18765716  .00013547  00000+0  48607-3 0  9997
2 40305  97.6499  78.9983 0003006 101.4212 354.4549 15.28819262468345
CBERS 4                 
1 40336U 14079A   23117.15320993  .00000423  00000+0  16195-3 0  9996
2 40336  98.4443 190.1883 0001083 116.2154 243.9181 14.35474418439412
